COSMOS 2251 DEB         
1 37499U 93036BMC 17345.18670366  .00000052  00000-0  28939-4 0  9992
2 37499  74.0389 260.4741 0029440 326.9863  32.9448 14.32204690432780
